[{"OBJECT_NAME":"STARLINK-35039","OBJECT_ID":"2025-194T","EPOCH":"2026-03-09T12:40:07.448736","MEAN_MOTION":15.05635311,"ECCENTRICITY":0.00030853,"INCLINATION":97.6025,"RA_OF_ASC_NODE":284.239,"ARG_OF_PERICENTER":77.2772,"MEAN_ANOMALY":282.88,"EPHEMERIS_TYPE":0,"CLASSIFICATION_TYPE":"U","NORAD_CAT_ID":65451,"ELEMENT_SET_NO":999,"REV_AT_EPOCH":2962,"BSTAR":0.00094098596,"MEAN_MOTION_DOT":0.00013538,"MEAN_MOTION_DDOT":0},{"OBJECT_NAME":"ATLAS H R\/B","OBJECT_ID":"1987-043B","EPOCH":"2026-03-09T13:01:50.955168","MEAN_MOTION":13.51112774,"ECCENTRICITY":0.07077502,"INCLINATION":63.3177,"RA_OF_ASC_NODE":133.9687,"ARG_OF_PERICENTER":116.0924,"MEAN_ANOMALY":251.4684,"EPHEMERIS_TYPE":0,"CLASSIFICATION_TYPE":"U","NORAD_CAT_ID":17998,"ELEMENT_SET_NO":999,"REV_AT_EPOCH":33779,"BSTAR":0.00041214221,"MEAN_MOTION_DOT":1.232e-5,"MEAN_MOTION_DDOT":0}]
